P/2007 K2 (Gibbs),e,7.6592,188.6466,347.4870,7.250046,0.0504886,0.68590578,161.7952,03/22.0/2016,2000,g 14.0,4.0
# From MPC 82314
C/2007 K3 (Siding Spring),e,16.3357,263.2400,23.3495,1407,0.0000187,0.99855112,0.0000,04/19.6355/2008,2000,g  9.5,4.0
# From MPC 87475
C/2007 M1 (McNaught),e,139.6744,326.9216,52.6117,1330,0.0000203,0.99438720,0.0000,08/08.6205/2008,2000,g  6.0,4.0
# From MPC 68392
C/2007 M2 (Catalina),e,81.1240,357.2219,220.6605,1260,0.0000220,0.99718887,0.0000,12/09.0280/2008,2000,g  8.0,4.0
# From MPC 73461
C/2007 N3 (Lulin),e,178.3764,338.2143,136.5975,1168,0.0000247,0.99895132,0.0000,01/07.1677/2009,2000,g  6.5,4.0
# From MPC 60925
P/2007 Q2 (Gilmore),e,10.2255,172.2640,163.1671,5.616658,0.0740435,0.66976560,233.0030,03/22.0/2016,2000,g 16.0,4.0
# From MPC 78183
C/2007 Q3 (Siding Spring),h,10/07.7965/2009,65.7303,149.2781,2.2146,1.000386,2.257965,2000,4.5,4.0
# From MPC 75514
P/2007 R1 (Larson),e,7.8709,181.6686,175.2965,6.049872,0.0662346,0.27696719,208.1621,03/22.0/2016,2000,g  8.0,4.0
# From MPC 75708
P/2007 R2 (Gibbs),e,1.3816,9.8650,353.7229,3.500521,0.1504891,0.56888483,119.5408,03/22.0/2016,2000,g 17.0,4.0
# From MPC 82314
P/2007 R3 (Gibbs),e,3.7933,30.0688,312.2091,4.300750,0.1105065,0.41384292,352.6608,03/22.0/2016,2000,g 13.5,4.0
# From MPC 75708
P/2007 R4 (Garradd),e,20.1964,87.3656,283.1202,5.875598,0.0692032,0.66903059,215.0750,03/22.0/2016,2000,g 14.5,4.0
# From MPC 73462
P/2007 S1 (Zhao),e,5.9734,141.5260,245.7374,3.798378,0.1331395,0.34327003,42.2154,03/22.0/2016,2000,g 13.0,4.0
# From MPC 82314
C/2007 S2 (Lemmon),e,16.8723,296.0588,210.5761,12.55473,0.0221561,0.55718858,60.8205,03/22.0/2016,2000,g  6.5,4.0
# From MPC 62270
C/2007 T1 (McNaught),e,117.4993,111.4024,233.7385,1795,0.0000130,0.99945782,0.0000,12/08.5632/2007,2000,g 10.5,4.0
# From MPC 61994
P/2007 T2 (Kowalski),e,9.9541,3.8639,358.5835,3.080753,0.1822715,0.77803073,204.0434,03/22.0/2016,2000,g 18.5,4.0
# From MPC 62879
P/2007 T4 (Gibbs),e,23.8633,37.0842,42.5262,5.240938,0.0821468,0.61829808,259.9019,03/22.0/2016,2000,g 13.0,4.0
# From MPC 65935
C/2007 T5 (Gibbs),e,45.6357,109.7656,34.5042,46.80172,0.0030783,0.91336635,8.7963,03/22.0/2016,2000,g  8.0,4.0
# From MPC 75708
P/2007 T6 (Catalina),e,22.1819,102.5219,335.8894,4.477531,0.1040270,0.50403591,325.6350,03/22.0/2016,2000,g 12.5,4.0
# From MPC 66921
C/2007 U1 (LINEAR),h,08/09.2881/2008,157.7563,50.3932,1.3868,1.001142,3.331648,2000,9.0,4.0
# From MPC 75708
P/2007 V1 (Larson),e,10.7602,7.9391,51.7395,4.972017,0.0889007,0.46234759,268.7633,03/22.0/2016,2000,g 12.0,4.0
# From MPC 75708
P/2007 VQ11 (Catalina),e,12.3258,163.8203,277.8781,5.411374,0.0782966,0.50326311,231.5064,03/22.0/2016,2000,g 12.0,4.0
# From MPC 81468
C/2007 VO53 (Spacewatch),h,04/26.4813/2010,86.9335,59.7112,75.1500,1.001531,4.850361,2000,7.0,4.0
# From MPC 63599
C/2007 W1 (Boattini),e,9.8814,334.8705,306.0703,1112,0.0000266,0.99924137,0.0000,06/22.7807/2008,2000,g  9.5,4.0
# From MPC 63376
C/2007 W3 (LINEAR),e,78.6565,72.9175,112.4231,3332,0.0000051,0.99947188,0.0000,06/04.6120/2008,2000,g 12.0,4.0
# From MPC 62271
C/2007 Y1 (LINEAR),e,110.2138,132.9721,357.2118,6555,0.0000019,0.99948747,0.0000,03/18.3125/2008,2000,g 10.5,4.0
# From MPC 62271
C/2007 Y2 (McNaught),e,98.5661,303.4591,257.7530,1010,0.0000307,0.99583692,0.0000,04/11.2955/2008,2000,g  9.0,4.0
# From MPC 65935
C/2008 A1 (McNaught),e,82.5875,277.9069,348.2626,2739,0.0000069,0.99961164,0.0000,09/27.7619/2008,2000,g  6.5,4.0
# From MPC 62582
C/2008 C1 (Chen-Gao),e,61.9300,307.6459,181.0336,6727,0.0000018,0.99981174,0.0000,04/18.1196/2008,2000,g 10.0,4.0
# From MPC 75708
P/2008 CL94 (Lemmon),e,8.3539,33.3579,81.3742,6.149200,0.0646362,0.12114509,229.5807,03/22.0/2016,2000,g  8.0,4.0
# From MPC 64113
C/2008 E1 (Catalina),e,34.8232,188.8197,270.7255,10.81497,0.0277119,0.55067676,76.9520,03/22.0/2016,2000,g  7.0,4.0
# From MPC 68392
C/2008 E3 (Garradd),e,105.0931,105.7266,217.9801,1178,0.0000244,0.99531139,0.0000,07/29.4429/2008,2000,g  6.0,4.0
# From MPC 88324
C/2008 FK75 (Lemmon-Siding Spring),h,09/28.8899/2010,61.2740,218.2744,80.3990,1.000120,4.508304,2000,5.0,4.0
# From MPC 82314
C/2008 G1 (Gibbs),e,73.0393,215.9191,63.6776,273.8265,0.0002175,0.98542880,0.0000,01/10.5153/2009,2000,g  9.5,4.0
# From MPC 63137
C/2008 H1 (LINEAR),e,75.3899,34.4535,95.9913,50.80058,0.0027221,0.94578574,7.9680,03/22.0/2016,2000,g 10.5,4.0
# From MPC 65054
C/2008 J1 (Boattini),e,61.7740,273.4749,68.1820,157.8830,0.0004968,0.98901348,0.0000,07/09.2753/2008,2000,g 10.0,4.0
# From MPC 75709
P/2008 J3 (McNaught),e,25.3505,9.8108,4.5799,3.905072,0.1277205,0.41055429,328.5845,03/22.0/2016,2000,g 12.0,4.0
# From MPC 63376
C/2008 J5 (Garradd),e,93.2954,287.1303,313.0578,68.23748,0.0017485,0.97153149,0.0000,04/01.9754/2008,2000,g 12.0,4.0
# From MPC 82314
C/2008 J6 (Hill),h,04/08.0753/2008,44.9437,298.2628,10.5599,1.000849,2.000209,2000,10.5,4.0
# From MPC 75709
P/2008 L2 (Hill),e,25.8277,218.0219,141.4205,6.020467,0.0667204,0.61182760,185.5093,03/22.0/2016,2000,g 12.5,4.0
# From MPC 68902
C/2008 N1 (Holmes),e,115.3881,357.3426,100.6932,872.6305,0.0000382,0.99680830,0.0000,09/23.6208/2009,2000,g  9.0,4.0
# From MPC 75709
P/2008 O2 (McNaught),e,9.5132,325.8484,27.0951,4.493319,0.1034792,0.15095357,262.3967,03/22.0/2016,2000,g  9.0,4.0
# From MPC 64114
P/2008 O3 (Boattini),e,32.2049,47.6178,341.2536,8.238691,0.0416789,0.69357994,118.9727,03/22.0/2016,2000,g 13.0,4.0
# From MPC 82314
C/2008 P1 (Garradd),e,64.2443,357.8130,11.8294,9056,0.0000011,0.99956938,0.0000,07/20.9589/2009,2000,g  7.0,4.0
# From MPC 65935
C/2008 Q1 (Maticic),e,118.5098,9.1324,104.2705,556.1526,0.0000751,0.99468696,0.0000,12/28.1069/2008,2000,g 10.0,4.0
# From MPC 80896
C/2008 Q3 (Garradd),e,140.7926,219.5362,340.5897,1230,0.0000229,0.99853660,0.0000,06/20.3446/2009,2000,g 10.0,4.0
# From MPC 75709
P/2008 QP20 (LINEAR-Hill),e,7.7404,324.9681,72.4062,3.493573,0.1509383,0.50652633,46.7315,03/22.0/2016,2000,g 15.5,4.0
# From MPC 64115
C/2008 R3 (LINEAR),e,43.2255,270.6186,84.2455,18.30622,0.0125836,0.89496212,33.7356,03/22.0/2016,2000,g 13.0,4.0
# From MPC 95207
C/2008 S3 (Boattini),h,06/10.0747/2011,162.7008,55.0345,40.1497,1.003672,8.013741,2000,4.0,4.0
# From MPC 82717
P/2008 T1 (Boattini),e,2.0788,291.7421,35.8146,4.249153,0.1125254,0.27916290,332.8460,03/22.0/2016,2000,g 11.0,4.0
# From MPC 66921
C/2008 T2 (Cardinal),h,06/15.2467/2009,56.4079,309.6605,215.8409,1.000093,1.198503,2000,6.0,4.0
# From MPC 75710
P/2008 T4 (Hill),e,6.3094,44.6213,1.6280,4.462747,0.1045444,0.43429855,276.4901,03/22.0/2016,2000,g 13.5,4.0
# From MPC 66204
P/2008 WZ96 (LINEAR),e,6.9575,59.0041,337.9525,3.362950,0.1598172,0.50997295,57.8380,03/22.0/2016,2000,g 13.5,4.0
# From MPC 65057
C/2008 X3 (LINEAR),e,66.5045,337.4987,140.9427,43.59013,0.0034247,0.95617868,9.3150,03/22.0/2016,2000,g 13.0,4.0
# From MPC 65935
P/2008 Y1 (Boattini),e,8.9186,259.3371,162.8126,4.801957,0.0936649,0.73605345,241.2824,03/22.0/2016,2000,g 15.0,4.0
# From MPC 75710
P/2008 Y3 (McNaught),e,38.8105,262.8436,238.3445,8.032202,0.0432964,0.44825911,113.6185,03/22.0/2016,2000,g  8.5,4.0
# From MPC 88693
P/2008 Y12 (SOHO),e,23.5780,309.8493,144.3240,3.076640,0.1826371,0.97808817,0.0000,05/17.8773/2014,2000,g  9.0,4.0
# From MPC 75710
P/2009 B1 (Boattini),e,22.2295,297.0593,129.1893,6.724409,0.0565227,0.63582516,147.2129,03/22.0/2016,2000,g 13.0,4.0
# From MPC 82315
C/2009 B2 (LINEAR),e,156.9467,18.7192,192.4558,40.42847,0.0038342,0.94202336,9.8738,03/22.0/2016,2000,g 12.5,4.0
# From MPC 72850
C/2009 E1 (Itagaki),e,127.4784,105.9566,48.8921,40.37592,0.0038417,0.98527300,0.0000,04/09.9658/2009,2000,g 11.5,4.0
# From MPC 82315
C/2009 F1 (Larson),e,171.4044,357.9614,219.8515,95.60606,0.0010543,0.98063297,0.0000,06/24.2479/2009,2000,g 15.0,4.0
# From MPC 80256
C/2009 F2 (McNaught),e,59.3381,213.9335,336.3283,347.2625,0.0001523,0.98309022,0.0000,11/13.8389/2009,2000,g  6.0,4.0
# From MPC 95208
C/2009 F4 (McNaught),e,79.4127,53.5593,260.3867,5815,0.0000022,0.99906186,0.0000,12/31.5519/2011,2000,g  3.0,4.0
# From MPC 66204
C/2009 F5 (McNaught),e,84.9502,218.8350,297.2254,78.49789,0.0014172,0.97151153,0.0000,11/05.0526/2008,2000,g 10.0,4.0
# From MPC 72850
C/2009 F6 (Yi-SWAN),e,85.7180,278.7092,129.9928,509.1651,0.0000858,0.99746637,0.0000,05/05.6146/2009,2000,g  6.0,4.0
# From MPC 66466
C/2009 G1 (STEREO),e,108.2404,120.7417,175.3096,401.9243,0.0001223,0.99721179,0.0000,04/15.0216/2009,2000,g  9.0,4.0
# From MPC 67147
P/2009 K1 (Gibbs),e,5.7439,172.7714,27.4409,3.691577,0.1389588,0.63709762,342.7138,03/22.0/2016,2000,g 17.0,4.0
# From MPC 82315
C/2009 K2 (Catalina),e,66.8264,123.8162,147.4761,831.4531,0.0000411,0.99611675,0.0000,02/07.6166/2010,2000,g 10.0,4.0
# From MPC 66703
C/2009 K4 (Gibbs),e,34.8359,29.8189,127.6202,42.15134,0.0036015,0.96337008,8.8813,03/22.0/2016,2000,g 13.0,4.0
# From MPC 82315
C/2009 K5 (McNaught),e,104.0822,257.9664,66.1876,1704,0.0000140,0.99916198,0.0000,04/27.6856/2010,2000,g  7.5,4.0
# From MPC 69905
C/2009 O2 (Catalina),e,107.9647,310.1218,133.5448,254.2514,0.0002431,0.99722586,0.0000,03/23.4511/2010,2000,g 11.0,4.0
# From MPC 75710
P/2009 O3 (Hill),e,16.2089,183.8258,154.3803,7.789450,0.0453361,0.68463272,113.6032,03/22.0/2016,2000,g 12.5,4.0
# From MPC 67147
C/2009 O4 (Hill),h,12/30.5775/2009,95.6407,172.9940,223.7335,1.000492,2.564774,2000,10.0,4.0
# From MPC 89309
C/2009 P1 (Garradd),e,106.1745,326.0055,90.7616,10246,0.0000010,0.99984817,0.0000,12/22.2050/2011,2000,g  4.0,4.0
# From MPC 76024
C/2009 P2 (Boattini),h,02/12.4322/2010,163.4330,60.4900,76.2532,1.002135,6.536077,2000,6.0,4.0
# From MPC 75710
P/2009 Q1 (Hill),e,14.4994,173.9457,157.3747,5.512597,0.0761500,0.49397458,187.8962,03/22.0/2016,2000,g 11.5,4.0
# From MPC 72850
P/2009 Q4 (Boattini),e,10.9795,127.5877,320.1127,3.135799,0.1774932,0.58018299,50.1661,03/22.0/2016,2000,g 15.5,4.0
# From MPC 68902
P/2009 Q5 (McNaught),e,40.8550,160.1779,209.2539,7.453898,0.0484316,0.60692165,115.8639,03/22.0/2016,2000,g 10.0,4.0
# From MPC 82315
